IRIDIUM 155             
1 43573U 18061E   25191.52442652  .00000073  00000+0  18888-4 0  9992
2 43573  86.3980 199.4254 0002252  82.3909 277.7542 14.34218026364383
IRIDIUM 154             
1 43574U 18061F   25191.57516732  .00000013  00000+0 -23215-5 0  9995
2 43574  86.3987 199.5208 0002192  89.7687 270.3760 14.34217606364449
IRIDIUM 163             
1 43575U 18061G   25191.55613994  .00000088  00000+0  24433-4 0  9995
2 43575  86.3980 199.4549 0002444  87.4782 272.6694 14.34218191364419
IRIDIUM 156             
1 43576U 18061H   25191.53076928  .00000054  00000+0  12271-4 0  9994
2 43576  86.3980 199.4724 0002089  82.6016 277.5417 14.34217973364400
IRIDIUM 164             
1 43577U 18061J   25191.58150983  .00000007  00000+0 -46174-5 0  9993
2 43577  86.3985 199.4861 0002020  94.5700 265.5726 14.34217696364452
IRIDIUM 159             
1 43578U 18061K   25191.54979706  .00000054  00000+0  12156-4 0  9995
2 43578  86.3979 199.4432 0002423  94.5359 265.6114 14.34218074364416
IRIDIUM 180             
1 43922U 19002A   25191.27022006  .00000001  00000+0 -65304-5 0  9993
2 43922  86.3999 136.5426 0002256  83.4810 276.6643 14.34217457339986
IRIDIUM 176             
1 43923U 19002B   25191.34939826  .00000647  00000+0  98711-4 0  9991
2 43923  86.6122 136.5005 0002764  73.2806 286.8714 14.72246038348955
IRIDIUM 168             
1 43924U 19002C   25191.54295053  .00000177  00000+0  56316-4 0  9994
2 43924  86.3999 136.4964 0002330  84.7225 275.4236 14.34217302340000
IRIDIUM 173             
1 43925U 19002D   25191.39072921  .00000012  00000+0 -28874-5 0  9993
2 43925  86.3996 136.4628 0002408  81.4447 278.7021 14.34217512339965
IRIDIUM 169             
1 43926U 19002E   25191.45516641  .00000217  00000+0  64444-4 0  9991
2 43926  86.4260 168.0198 0002798  55.4630 304.6833 14.38613442341094
IRIDIUM 172             
1 43927U 19002F   25191.59369251 -.00000002  00000+0 -77843-5 0  9992
2 43927  86.3998 136.3849 0002429  86.8656 273.2817 14.34217461340000
IRIDIUM 175             
1 43928U 19002G   25191.41236621  .00000599  00000+0  91003-4 0  9990
2 43928  86.1490  87.6668 0001530  72.9157 287.2227 14.72244897348954
IRIDIUM 171             
1 43929U 19002H   25191.57466364  .00000002  00000+0 -62112-5 0  9997
2 43929  86.4008 136.6614 0001824  86.8255 273.3150 14.34217439339993
IRIDIUM 170             
1 43930U 19002J   25191.55947487  .00000495  00000+0  74681-4 0  9995
2 43930  86.6121 136.4173 0002437  78.7557 281.3934 14.72246812348995
IRIDIUM 167             
1 43931U 19002K   25191.56832040  .00000010  00000+0 -34681-5 0  9996
2 43931  86.3999 136.4151 0001761  77.6985 282.4408 14.34217552339999
IRIDIUM 181             
1 56726U 23068S   25191.52054397  .00000136  00000+0  34430-4 0  9995
2 56726  86.4519 199.4920 0001988 102.7265 257.4158 14.43310245113154
IRIDIUM 177             
1 56727U 23068T   25191.32604644  .00000890  00000+0  11370-3 0  9994
2 56727  86.1991 131.1501 0002249  86.9374 273.2104 14.80225991115792
IRIDIUM 174             
1 56728U 23068U   25191.27525893  .00000628  00000+0  95672-4 0  9994
2 56728  86.6130 136.6484 0003165  83.0124 277.1453 14.72253494115714
IRIDIUM 178             
1 56729U 23068V   25191.45035348  .00000812  00000+0  10342-3 0  9991
2 56729  86.6579 168.1274 0002737  86.9380 273.2155 14.80229463115814
IRIDIUM 179             
1 56730U 23068W   25191.44497704  .00000427  00000+0  52783-4 0  9998
2 56730  86.6817 176.0692 0002523  86.9567 273.1944 14.80231131115813
